NORAD_CAT_ID,OBJECT_NAME,OBJECT_TYPE,EPOCH,MEAN_MOTION,ECCENTRICITY,INCLINATION,RA_OF_ASC_NODE,ARG_OF_PERICENTER,MEAN_ANOMALY,BSTAR,MEAN_MOTION_DOT,MEAN_MOTION_DDOT,TLE_LINE0,TLE_LINE1,TLE_LINE2,SEMIMAJOR_AXIS,PERIOD,APOGEE,PERIGEE,DECAYED
53641.0,STARLINK-4588,PAYLOAD,2023-09-06 17:51:00,15.08851917,0.0001003,53.2179,11.1831,76.2333,283.8771,0.00013263,1.824e-05,0.0,0 STARLINK-4588,1 53641U 22104BF  23249.74375996  .00001824  00000-0  13263-3 0  9991,2 53641  53.2179  11.1831 0001003  76.2333 283.8771 15.08851917 57082,6917.844,95.437,540.403,539.015,0.0
53641.0,STARLINK-4588,PAYLOAD,2023-09-07 09:44:52,15.08844547,0.0001201,53.2178,8.2086,89.5969,270.5161,3.9177e-05,3.36e-06,0.0,0 STARLINK-4588,1 53641U 22104BF  23250.40616237  .00000336  00000-0  39177-4 0  9992,2 53641  53.2178   8.2086 0001201  89.5969 270.5161 15.08844547 57180,6917.866,95.437,540.562,538.901,0.0
53641.0,STARLINK-4588,PAYLOAD,2023-09-07 17:41:47,15.08853253,0.0001071,53.2188,6.7195,127.9584,232.1505,6.0318e-05,6.73e-06,0.0,0 STARLINK-4588,1 53641U 22104BF  23250.73735379  .00000673  00000-0  60318-4 0  9992,2 53641  53.2188   6.7195 0001071 127.9584 232.1505 15.08853253 57236,6917.84,95.437,540.446,538.964,0.0
53641.0,STARLINK-4588,PAYLOAD,2023-09-08 11:11:02,15.0883653,0.0001717,53.2172,3.4475,118.2821,241.8344,-2.6504e-05,-7.1e-06,0.0,0 STARLINK-4588,1 53641U 22104BF  23251.46600417 -.00000710  00000-0 -26504-4 0  9990,2 53641  53.2172   3.4475 0001717 118.2821 241.8344 15.08836530 57347,6917.891,95.438,540.944,538.568,0.0
53641.0,STARLINK-4588,PAYLOAD,2023-09-08 12:46:26,15.08838887,0.0001249,53.2186,3.1536,99.0351,261.0783,1.1237e-06,-2.7e-06,0.0,0 STARLINK-4588,1 53641U 22104BF  23251.53224548 -.00000270  00000-0  11237-5 0  9993,2 53641  53.2186   3.1536 0001249  99.0351 261.0783 15.08838887 58373,6917.884,95.438,540.613,538.885,0.0
53641.0,STARLINK-4588,PAYLOAD,2023-09-09 14:12:36,15.08842403,0.0001295,53.2179,358.3973,92.9742,267.1398,0.00012971,1.777e-05,0.0,0 STARLINK-4588,1 53641U 22104BF  23252.59208377  .00001777  00000-0  12971-3 0  9998,2 53641  53.2179 358.3973 0001295  92.9742 267.1398 15.08842403 58538,6917.873,95.437,540.634,538.842,0.0
53641.0,STARLINK-4588,PAYLOAD,2023-09-10 12:27:59,15.08846107,0.0001272,53.218,354.2347,92.0982,268.0156,0.00024178,3.563e-05,0.0,0 STARLINK-4588,1 53641U 22104BF  23253.51944334  .00003563  00000-0  24178-3 0  9998,2 53641  53.2180 354.2347 0001272  92.0982 268.0156 15.08846107 58674,6917.862,95.437,540.607,538.847,0.0
53641.0,STARLINK-4588,PAYLOAD,2023-09-10 15:38:45,15.08852453,0.0001316,53.2178,353.6398,94.981,265.1333,0.00031579,4.743e-05,0.0,0 STARLINK-4588,1 53641U 22104BF  23253.65192022  .00004743  00000-0  31579-3 0  9996,2 53641  53.2178 353.6398 0001316  94.9810 265.1333 15.08852453 57675,6917.842,95.437,540.618,538.797,0.0
53641.0,STARLINK-4588,PAYLOAD,2023-09-11 10:43:23,15.08840832,0.0001855,53.2172,350.0695,115.7355,244.3829,7.3264e-05,8.78e-06,0.0,0 STARLINK-4588,1 53641U 22104BF  23254.44680412  .00000878  00000-0  73264-4 0  9992,2 53641  53.2172 350.0695 0001855 115.7355 244.3829 15.08840832 57794,6917.878,95.438,541.026,538.46,0.0
53641.0,STARLINK-4588,PAYLOAD,2023-09-11 13:54:10,15.088407,0.000129,53.2178,349.4753,82.6271,277.4868,9.5137e-05,1.227e-05,0.0,0 STARLINK-4588,1 53641U 22104BF  23254.57928606  .00001227  00000-0  95137-4 0  9998,2 53641  53.2178 349.4753 0001290  82.6271 277.4868 15.08840700 58839,6917.878,95.438,540.636,538.851,0.0
53641.0,STARLINK-4588,PAYLOAD,2023-09-12 13:44:57,15.08852658,0.0001271,53.2175,345.0159,87.3288,272.785,0.00033838,5.103e-05,0.0,0 STARLINK-4588,1 53641U 22104BF  23255.57288209  .00005103  00000-0  33838-3 0  9993,2 53641  53.2175 345.0159 0001271  87.3288 272.7850 15.08852658 58987,6917.842,95.437,540.586,538.827,0.0
53641.0,STARLINK-4588,PAYLOAD,2023-09-12 15:20:21,15.08808414,0.0001504,53.2188,344.7212,92.3424,267.7741,-0.00058459,-9.572e-05,0.0,0 STARLINK-4588,1 53641U 22104BF  23255.63913689 -.00009572  00000-0 -58459-3 0  9999,2 53641  53.2188 344.7212 0001504  92.3424 267.7741 15.08808414 57976,6917.977,95.44,540.882,538.801,0.0
53641.0,STARLINK-4588,PAYLOAD,2023-09-12 23:17:22,15.08714778,0.0002093,53.2197,343.227,80.6557,279.4672,-0.0019283,-0.00030742,0.0,0 STARLINK-4588,1 53641U 22104BF  23255.97039504 -.00030742  00000-0 -19283-2 0  9995,2 53641  53.2197 343.2270 0002093  80.6557 279.4672 15.08714778 58024,6918.263,95.445,541.576,538.68,0.0
53641.0,STARLINK-4588,PAYLOAD,2023-09-13 18:22:29,15.08294327,0.0001107,53.2171,339.6664,207.2074,152.886,-0.0065391,-0.00101372,0.0,0 STARLINK-4588,1 53641U 22104BF  23256.76562421 -.00101372  00000-0 -65391-2 0  9991,2 53641  53.2171 339.6664 0001107 207.2074 152.8860 15.08294327 58147,6919.549,95.472,542.18,540.648,0.0
53641.0,STARLINK-4588,PAYLOAD,2023-09-13 21:33:26,15.08034971,0.0004025,53.2176,339.0724,188.9133,171.1788,-0.011176,-0.00170238,0.0,0 STARLINK-4588,1 53641U 22104BF  23256.89822821 -.00170238  00000-0 -11176-1 0  9996,2 53641  53.2176 339.0724 0004025 188.9133 171.1788 15.08034971 59181,6920.342,95.489,544.993,539.422,0.0
53641.0,STARLINK-4588,PAYLOAD,2023-09-13 23:08:57,15.0797453,0.0001165,53.2181,338.7744,68.9872,291.1245,-0.011317,-0.00172007,0.0,0 STARLINK-4588,1 53641U 22104BF  23256.96455738 -.00172007  00000-0 -11317-1 0  9996,2 53641  53.2181 338.7744 0001165  68.9872 291.1245 15.07974530 58176,6920.527,95.492,543.198,541.586,0.0
53641.0,STARLINK-4588,PAYLOAD,2023-09-14 14:00:01,15.07203682,0.0001333,53.217,336.0035,75.6955,44.1561,-0.0016872,-0.00025872,0.0,0 STARLINK-4588,1 53641U 22104BF  23257.58335648 -.00025872  00000-0 -16872-2 0  9991,2 53641  53.2170 336.0035 0001333  75.6955  44.1561 15.07203682 58262,6922.886,95.541,545.674,543.829,0.0
53641.0,STARLINK-4588,PAYLOAD,2023-09-14 22:00:00,15.07197097,0.0001237,53.217,334.5098,81.3628,48.042,7.4913e-05,8.57e-06,0.0,0 STARLINK-4588,1 53641U 22104BF  23257.91667824  .00000857  00000-0  74913-4 0  9998,2 53641  53.2170 334.5098 0001237  81.3628  48.0420 15.07197097  5764,6922.907,95.542,545.628,543.915,0.0
53641.0,STARLINK-4588,PAYLOAD,2023-09-15 06:00:00,15.07204607,0.0001273,53.2172,333.0168,86.495,52.5115,0.00091042,0.00013602,0.0,0 STARLINK-4588,1 53641U 22104BF  23258.25001157  .00013602  00000-0  91042-3 0  9990,2 53641  53.2172 333.0168 0001273  86.4950  52.5115 15.07204607 58363,6922.884,95.541,545.63,543.867,0.0
53641.0,STARLINK-4588,PAYLOAD,2023-09-15 14:00:01,15.07194941,0.0001297,53.2171,331.5259,76.7195,71.9328,0.00086154,0.00012851,0.0,0 STARLINK-4588,1 53641U 22104BF  23258.58334491  .00012851  00000-0  86154-3 0  9999,2 53641  53.2171 331.5259 0001297  76.7195  71.9328 15.07194941  5817,6922.913,95.542,545.676,543.88,0.0
53641.0,STARLINK-4588,PAYLOAD,2023-09-16 06:00:00,15.07228213,0.0001266,53.2172,328.5392,90.5667,77.3348,-0.0001464,-2.513e-05,0.0,0 STARLINK-4588,1 53641U 22104BF  23259.25001157 -.00002513  00000-0 -14640-3 0  9991,2 53641  53.2172 328.5392 0001266  90.5667  77.3348 15.07228213 58513,6922.811,95.54,545.553,543.8,0.0
53641.0,STARLINK-4588,PAYLOAD,2023-09-16 14:00:01,15.07198507,0.0001249,53.2169,327.0482,81.8128,95.7535,-0.0002538,-4.144e-05,0.0,0 STARLINK-4588,1 53641U 22104BF  23259.58334491 -.00004144  00000-0 -25380-3 0  9992,2 53641  53.2169 327.0482 0001249  81.8128  95.7535 15.07198507  5818,6922.902,95.541,545.632,543.903,0.0
53641.0,STARLINK-4588,PAYLOAD,2023-09-16 22:00:00,15.07199956,0.0001176,53.2166,325.5542,92.5277,94.66,-4.4633e-05,-9.62e-06,0.0,0 STARLINK-4588,1 53641U 22104BF  23259.91667824 -.00000962  00000-0 -44633-4 0  9995,2 53641  53.2166 325.5542 0001176  92.5277  94.6600 15.07199956 58614,6922.898,95.541,545.577,543.949,0.0
53641.0,STARLINK-4588,PAYLOAD,2023-09-17 14:00:01,15.07182041,0.0001327,53.2164,322.5704,83.0304,123.4284,0.0010825,0.00016222,0.0,0 STARLINK-4588,1 53641U 22104BF  23260.58334491  .00016222  00000-0  10825-2 0  9999,2 53641  53.2164 322.5704 0001327  83.0304 123.4284 15.07182041  5813,6922.953,95.543,545.736,543.899,0.0
53641.0,STARLINK-4588,PAYLOAD,2023-09-17 22:38:13,15.07214172,0.0001302,53.2168,320.9574,85.2593,274.8547,0.00011079,1.404e-05,0.0,0 STARLINK-4588,1 53641U 22104BF  23260.94320776  .00001404  00000-0  11079-3 0  9999,2 53641  53.2168 320.9574 0001302  85.2593 274.8547 15.07214172 58778,6922.854,95.541,545.621,543.818,0.0
53641.0,STARLINK-4588,PAYLOAD,2023-09-18 11:22:07,15.07227035,0.0001429,53.2173,318.5794,81.9436,278.1718,0.00030202,4.319e-05,0.0,0 STARLINK-4588,1 53641U 22104BF  23261.47369462  .00004319  00000-0  30202-3 0  9990,2 53641  53.2173 318.5794 0001429  81.9436 278.1718 15.07227035 59871,6922.815,95.54,545.669,543.691,0.0
53641.0,STARLINK-4588,PAYLOAD,2023-09-18 20:55:03,15.07217065,0.0001295,53.2172,316.8001,102.6294,257.4842,9.7476e-05,1.201e-05,0.0,0 STARLINK-4588,1 53641U 22104BF  23261.87156727  .00001201  00000-0  97476-4 0  9996,2 53641  53.2172 316.8001 0001295 102.6294 257.4842 15.07217065 59933,6922.846,95.54,545.607,543.814,0.0
53641.0,STARLINK-4588,PAYLOAD,2023-09-19 09:38:58,15.07207539,0.0001625,53.2175,314.4263,92.1536,267.9641,3.099e-05,1.88e-06,0.0,0 STARLINK-4588,1 53641U 22104BF  23262.40206836  .00000188  00000-0  30990-4 0  9994,2 53641  53.2175 314.4263 0001625  92.1536 267.9641 15.07207539 58992,6922.875,95.541,545.865,543.615,0.0
53641.0,STARLINK-4588,PAYLOAD,2023-09-19 12:49:56,15.0721555,0.0001519,53.2169,313.8313,92.6322,267.4843,0.00014858,1.98e-05,0.0,0 STARLINK-4588,1 53641U 22104BF  23262.53468710  .00001980  00000-0  14858-3 0  9994,2 53641  53.2169 313.8313 0001519  92.6322 267.4843 15.07215550 59019,6922.85,95.54,545.767,543.664,0.0
53641.0,STARLINK-4588,PAYLOAD,2023-09-20 03:09:21,15.07205156,0.0001376,53.2166,311.1569,98.053,262.0617,0.00017428,2.37e-05,0.0,0 STARLINK-4588,1 53641U 22104BF  23263.13149778  .00002370  00000-0  17428-3 0  9991,2 53641  53.2166 311.1569 0001376  98.0530 262.0617 15.07205156 59103,6922.882,95.541,545.7,543.794,0.0
